NORAD_CAT_ID,OBJECT_NAME,OBJECT_TYPE,EPOCH,MEAN_MOTION,ECCENTRICITY,INCLINATION,RA_OF_ASC_NODE,ARG_OF_PERICENTER,MEAN_ANOMALY,BSTAR,MEAN_MOTION_DOT,MEAN_MOTION_DDOT,TLE_LINE0,TLE_LINE1,TLE_LINE2,SEMIMAJOR_AXIS,PERIOD,APOGEE,PERIGEE,DECAYED
54194.0,STARLINK-5271,PAYLOAD,2023-01-12 22:00:00,15.38553309,0.0001441999999999,53.2171,125.8518,45.7074,245.4606,-0.032494,-0.01145598,0.0,0 STARLINK-5271,1 54194U 22141AP  23012.91667824 -.01145598  00000-0 -32494-1 0  9992,2 54194  53.2171 125.8518 0001442  45.7074 245.4606 15.38553309 12330,6828.524,93.594,451.3730000000001,449.404,0.0
54194.0,STARLINK-5271,PAYLOAD,2023-01-13 14:00:01,15.36910292,0.0001185,53.2128,122.7293,75.87899999999999,307.9448,-0.033619,-0.01125064,0.0,0 STARLINK-5271,1 54194U 22141AP  23013.58334491 -.01125064  00000-0 -33619-1 0  9993,2 54194  53.2128 122.7293 0001185  75.8790 307.9448 15.36910292  1300,6833.389,93.694,456.064,454.445,0.0
54194.0,STARLINK-5271,PAYLOAD,2023-01-13 22:00:00,15.36138858,0.0001185,53.2128,121.1674,68.7705,359.8819,-0.03689,-0.01196886,0.0,0 STARLINK-5271,1 54194U 22141AP  23013.91667824 -.01196886  00000-0 -36890-1 0  9993,2 54194  53.2128 121.1674 0001185  68.7705 359.8819 15.36138858 12482,6835.677,93.742,458.352,456.732,0.0
54194.0,STARLINK-5271,PAYLOAD,2023-01-14 14:00:01,15.34463133,0.0001435,53.2133,118.0511,73.0794,82.3325,-0.036002,-0.01114355,0.0,0 STARLINK-5271,1 54194U 22141AP  23014.58334491 -.01114355  00000-0 -36002-1 0  9994,2 54194  53.2133 118.0511 0001435  73.0794  82.3325 15.34463133 12584,6840.653,93.844,463.499,461.536,0.0
54194.0,STARLINK-5271,PAYLOAD,2023-01-15 06:00:00,15.32862534,0.0001419999999999,53.2135,114.9397,97.2886,140.9472,-0.038907,-0.01141798,0.0,0 STARLINK-5271,1 54194U 22141AP  23015.25001157 -.01141798  00000-0 -38907-1 0  9996,2 54194  53.2135 114.9397 0001420  97.2886 140.9472 15.32862534 12699,6845.414000000001,93.942,468.251,466.307,0.0
54194.0,STARLINK-5271,PAYLOAD,2023-01-15 14:00:01,15.32019333,0.0001358,53.2136,113.3899,87.2109,190.9901,-0.038663,-0.01107893,0.0,0 STARLINK-5271,1 54194U 22141AP  23015.58334491 -.01107893  00000-0 -38663-1 0  9999,2 54194  53.2136 113.3899 0001358  87.2109 190.9901 15.32019333  1306,6847.925,93.994,470.72,468.86,0.0
54194.0,STARLINK-5271,PAYLOAD,2023-01-15 22:00:01,15.31248036,0.0001196,53.2137,111.8394,84.1889,233.0399,-0.0426449999999999,-0.01185015,0.0,0 STARLINK-5271,1 54194U 22141AP  23015.91668981 -.01185015  00000-0 -42645-1 0  9997,2 54194  53.2137 111.8394 0001196  84.1889 233.0399 15.31248036 12799,6850.225,94.041,472.909,471.27,0.0
54194.0,STARLINK-5271,PAYLOAD,2023-01-16 14:00:01,15.29581244,0.0001301,53.214,108.7463,74.2314,317.9546,-0.0418339999999999,-0.01110471,0.0,0 STARLINK-5271,1 54194U 22141AP  23016.58334491 -.01110471  00000-0 -41834-1 0  9990,2 54194  53.2140 108.7463 0001301  74.2314 317.9546 15.29581244 12891,6855.2,94.143,477.957,476.173,0.0
54194.0,STARLINK-5271,PAYLOAD,2023-01-16 22:00:00,15.28799804,0.0001315999999999,53.214,107.2012,72.7133,355.5067,-0.045471,-0.01188084,0.0,0 STARLINK-5271,1 54194U 22141AP  23016.91667824 -.01188084  00000-0 -45471-1 0  9992,2 54194  53.2140 107.2012 0001316  72.7133 355.5067 15.28799804  1305,6857.536,94.192,480.30300000000005,478.499,0.0
54194.0,STARLINK-5271,PAYLOAD,2023-01-17 04:00:00,15.28161649,0.0001216,53.2139,106.0435,84.2789,280.333,-0.043688,-0.01109925,0.0,0 STARLINK-5271,1 54194U 22141AP  23017.16667824 -.01109925  00000-0 -43688-1 0  9995,2 54194  53.2139 106.0435 0001216  84.2789 280.3330 15.28161649 12987,6859.445,94.231,482.144,480.476,0.0
54194.0,STARLINK-5271,PAYLOAD,2023-01-17 14:00:01,15.27143799,0.0001476,53.2156,104.1197,72.6838,64.689,-0.045377,-0.01116801,0.0,0 STARLINK-5271,1 54194U 22141AP  23017.58334491 -.01116801  00000-0 -45377-1 0  9990,2 54194  53.2156 104.1197 0001476  72.6838  64.6890 15.27143799 13041,6862.493,94.294,485.37,483.345,0.0
54194.0,STARLINK-5271,PAYLOAD,2023-01-17 22:00:00,15.26351176,0.0001416,53.2143,102.5806,77.0028,93.4728,-0.048468,-0.01175872,0.0,0 STARLINK-5271,1 54194U 22141AP  23017.91667824 -.01175872  00000-0 -48468-1 0  9993,2 54194  53.2143 102.5806 0001416  77.0028  93.4728 15.26351176  1305,6864.868,94.343,487.705,485.761,0.0
54194.0,STARLINK-5271,PAYLOAD,2023-01-18 08:00:01,15.25343696,0.0001425,53.2144,100.6605,88.984,211.4933,-0.050347,-0.01184016,0.0,0 STARLINK-5271,1 54194U 22141AP  23018.33334491 -.01184016  00000-0 -50347-1 0  9990,2 54194  53.2144 100.6605 0001425  88.9840 211.4933 15.25343696 13169,6867.891,94.405,490.734,488.777,0.0
54194.0,STARLINK-5271,PAYLOAD,2023-01-18 14:00:01,15.24692056,0.0001484,53.2144,99.5113,79.0862,154.6734,-0.047866,-0.01095514,0.0,0 STARLINK-5271,1 54194U 22141AP  23018.58334491 -.01095514  00000-0 -47866-1 0  9993,2 54194  53.2144  99.5113 0001484  79.0862 154.6734 15.24692056  1305,6869.847,94.445,492.732,490.693,0.0
54194.0,STARLINK-5271,PAYLOAD,2023-01-18 22:00:00,15.23904406,0.0001351,53.2143,97.9775,88.6717,175.2578,-0.051752,-0.01166857,0.0,0 STARLINK-5271,1 54194U 22141AP  23018.91667824 -.01166857  00000-0 -51752-1 0  9997,2 54194  53.2143  97.9775 0001351  88.6717 175.2578 15.23904406  1307,6872.214,94.494,495.008,493.151,0.0
54194.0,STARLINK-5271,PAYLOAD,2023-01-19 06:00:00,15.23113211,0.0001396999999999,53.2143,96.4466,102.579,190.5314,-0.053898,-0.01185273,0.0,0 STARLINK-5271,1 54194U 22141AP  23019.25001157 -.01185273  00000-0 -53898-1 0  9992,2 54194  53.2143  96.4466 0001397 102.5790 190.5314 15.23113211 13302,6874.594,94.543,497.419,495.499,0.0
54194.0,STARLINK-5271,PAYLOAD,2023-01-19 14:00:01,15.22251974,0.0001286,53.2143,94.9199,88.9046,232.4393,-0.051515,-0.01095933,0.0,0 STARLINK-5271,1 54194U 22141AP  23019.58334491 -.01095933  00000-0 -51515-1 0  9995,2 54194  53.2143  94.9199 0001286  88.9046 232.4393 15.22251974  1304,6877.187,94.597,499.936,498.167,0.0
54194.0,STARLINK-5271,PAYLOAD,2023-01-20 14:00:01,15.19812274,0.0001257,53.2142,90.3456,80.0323,320.0965,-0.055414,-0.01111227,0.0,0 STARLINK-5271,1 54194U 22141AP  23020.58334491 -.01111227  00000-0 -55414-1 0  9994,2 54194  53.2142  90.3456 0001257  80.0323 320.0965 15.19812274 13504,6884.544,94.749,507.275,505.544,0.0
54194.0,STARLINK-5271,PAYLOAD,2023-01-20 16:00:00,15.19624764,0.0001414,53.2138,89.965,77.6022,58.6881,-0.057026,-0.01135356,0.0,0 STARLINK-5271,1 54194U 22141AP  23020.66667824 -.01135356  00000-0 -57026-1 0  9992,2 54194  53.2138  89.9650 0001414  77.6022  58.6881 15.19624764  1303,6885.111,94.76,507.949,506.002,0.0
54194.0,STARLINK-5271,PAYLOAD,2023-01-21 06:00:00,15.1823085,0.0001413,53.2138,87.3037,87.8612,359.8859,-0.0625049999999999,-0.0119021,0.0,0 STARLINK-5271,1 54194U 22141AP  23021.25001157 -.01190210  00000-0 -62505-1 0  9997,2 54194  53.2138  87.3037 0001413  87.8612 359.8859 15.18230850 13606,6889.3240000000005,94.847,512.163,510.216,0.0
54194.0,STARLINK-5271,PAYLOAD,2023-01-21 22:00:00,15.16557337,0.0001381,53.2136,84.2711,83.0869,48.4014,-0.061608,-0.01123232,0.0,0 STARLINK-5271,1 54194U 22141AP  23021.91667824 -.01123232  00000-0 -61608-1 0  9992,2 54194  53.2136  84.2711 0001381  83.0869  48.4014 15.16557337 13700,6894.392,94.952,517.2090000000001,515.305,0.0
54194.0,STARLINK-5271,PAYLOAD,2023-01-22 14:00:01,15.14924344,0.0001488,53.2135,81.2474,75.9617,95.334,-0.063166,-0.011009,0.0,0 STARLINK-5271,1 54194U 22141AP  23022.58334491 -.01100900  00000-0 -63166-1 0  9995,2 54194  53.2135  81.2474 0001488  75.9617  95.3340 15.14924344 13809,6899.345,95.054,522.237,520.184,0.0
54194.0,STARLINK-5271,PAYLOAD,2023-01-23 06:00:02,15.13343133,0.0001556,53.2135,78.2282,87.3192,119.9268,-0.071616,-0.01186084,0.0,0 STARLINK-5271,1 54194U 22141AP  23023.25002315 -.01186084  00000-0 -71616-1 0  9993,2 54194  53.2135  78.2282 0001556  87.3192 119.9268 15.13343133 13917,6904.15,95.154,527.09,524.941,0.0
54194.0,STARLINK-5271,PAYLOAD,2023-01-23 22:00:00,15.11665687,0.0001405,53.2136,75.2176,84.272,154.9173,-0.0695809999999999,-0.01105783,0.0,0 STARLINK-5271,1 54194U 22141AP  23023.91667824 -.01105783  00000-0 -69581-1 0  9993,2 54194  53.2136  75.2176 0001405  84.2720 154.9173 15.11665687 14018,6909.257,95.259,532.0930000000001,530.151,0.0
54194.0,STARLINK-5271,PAYLOAD,2023-01-24 14:00:01,15.10050602,0.0001413,53.2137,72.2166,82.0343,185.221,-0.073279,-0.01112777,0.0,0 STARLINK-5271,1 54194U 22141AP  23024.58334491 -.01112777  00000-0 -73279-1 0  9998,2 54194  53.2137  72.2166 0001413  82.0343 185.2210 15.10050602 14115,6914.183000000001,95.361,537.025,535.071,0.0
54194.0,STARLINK-5271,PAYLOAD,2023-01-24 22:00:00,15.08995096,0.0001582,53.2145,70.7162,80.7011,199.1754,-0.021553,-0.00329334,0.0,0 STARLINK-5271,1 54194U 22141AP  23024.91667824 -.00329334  00000-0 -21553-1 0  9990,2 54194  53.2145  70.7162 0001582  80.7011 199.1754 15.08995096 14161,6917.406,95.428,540.366,538.177,0.0
54194.0,STARLINK-5271,PAYLOAD,2023-01-25 06:00:00,15.08796398,0.0001757,53.2151,69.2201,87.2787,204.2203,0.0029798,0.00047398,0.0,0 STARLINK-5271,1 54194U 22141AP  23025.25001157  .00047398  00000-0  29798-2 0  9994,2 54194  53.2151  69.2201 0001757  87.2787 204.2203 15.08796398 14218,6918.014,95.44,541.094,538.663,0.0
54194.0,STARLINK-5271,PAYLOAD,2023-01-25 14:00:01,15.08794437,0.0001819,53.2153,67.7247,78.0803,224.9717,0.0040412,0.00064537,0.0,0 STARLINK-5271,1 54194U 22141AP  23025.58334491  .00064537  00000-0  40412-2 0  9990,2 54194  53.2153  67.7247 0001819  78.0803 224.9717 15.08794437 14265,6918.02,95.44,541.143,538.626,0.0
54194.0,STARLINK-5271,PAYLOAD,2023-01-25 22:00:00,15.08818336,0.0001778,53.2156,66.2265,86.2264,228.4053,0.0035171,0.00056099,0.0,0 STARLINK-5271,1 54194U 22141AP  23025.91667824  .00056099  00000-0  35171-2 0  9996,2 54194  53.2156  66.2265 0001778  86.2264 228.4053 15.08818336  1306,6917.946999999999,95.439,541.0419999999999,538.582,0.0
